OKEAN-3                 
1 21397U 91039A   25310.88701965  .00005383  00000+0  38943-3 0  9997
2 21397  82.5153  95.7382 0015224  32.3159 327.8996 15.03745646846574
COSMOS 2151             
1 21422U 91042A   25311.19145336  .00003197  00000+0  25797-3 0  9993
2 21422  82.4993 201.7501 0014014 109.7920 250.4816 14.99492324844832
SL-14 R/B               
1 21423U 91042B   25311.12560729  .00000528  00000+0  64050-4 0  9995
2 21423  82.4926 335.1248 0015510 285.3602  74.5898 14.81689254834924
ERS-1                   
1 21574U 91050A   25311.00566532  .00000411  00000+0  14648-3 0  9994
2 21574  98.7926 321.1629 0031556 204.5084 155.4604 14.39321761798083
ARIANE 40 R/B           
1 21610U 91050F   25311.14030091  .00000478  00000+0  15593-3 0  9999
2 21610  98.2218   2.8471 0004351  88.7993 271.3697 14.42765617801323
INTERCOSMOS 25          
1 21819U 91086A   25311.29830929  .00001764  00000+0  34294-3 0  9991
2 21819  82.6091  23.9968 1488612  20.7831 344.7735 12.11573562481860
SL-8 R/B                
1 21876U 92008B   25311.26746699  .00000142  00000+0  12978-3 0  9990
2 21876  82.9292 358.8306 0036021 115.8458 313.8969 13.75948081692580
SL-8 R/B                
1 21938U 92020B   25311.28086316  .00000067  00000+0  54344-4 0  9998
2 21938  82.9303 244.6464 0027661 280.4951 190.2316 13.75520436684300
USA 81                  
1 21949U 92023A   25311.12590462  .00000262  00000+0  89809-4 0  9999
2 21949  85.0116 202.1098 0002739  80.9443 279.2060 14.32306793 77243
COSMOS 2219             
1 22219U 92076A   25311.28425901  .00000275  00000+0  16880-3 0  9992
2 22219  71.0603 273.9454 0017297  20.1694 340.0109 14.14062913701070
SL-16 R/B               
1 22220U 92076B   25311.27247657  .00000240  00000+0  14367-3 0  9993
2 22220  70.9992  86.2390 0015121 280.1332 125.1640 14.16833607704495
COSMOS 2221             
1 22236U 92080A   25311.29294172  .00003277  00000+0  29294-3 0  9999
2 22236  82.5073  36.2419 0013348 240.7116 119.2772 14.95546953762495
