CCSDS_OMM_VERS = 2.0
CREATION_DATE  = 
ORIGINATOR     = 

OBJECT_NAME    = OKEAN-3
OBJECT_ID      = 1991-039A
CENTER_NAME    = EARTH
REF_FRAME      = TEME
TIME_SYSTEM    = UTC
MEAN_ELEMENT_THEORY = SGP/SGP4

EPOCH          = 2025-11-06T21:17:18.497760
MEAN_MOTION    = 15.03745646
ECCENTRICITY   = .00152245
INCLINATION    = 82.5153
RA_OF_ASC_NODE = 95.7382
ARG_OF_PERICENTER = 32.3159
MEAN_ANOMALY   = 327.8996

EPHEMERIS_TYPE = 0
CLASSIFICATION_TYPE = U
NORAD_CAT_ID   = 21397
ELEMENT_SET_NO = 999
REV_AT_EPOCH   = 84657
BSTAR          = .38943153E-3
MEAN_MOTION_DOT = .5383E-4
MEAN_MOTION_DDOT = 0

CCSDS_OMM_VERS = 2.0
CREATION_DATE  = 
ORIGINATOR     = 

OBJECT_NAME    = COSMOS 2151
OBJECT_ID      = 1991-042A
CENTER_NAME    = EARTH
REF_FRAME      = TEME
TIME_SYSTEM    = UTC
MEAN_ELEMENT_THEORY = SGP/SGP4

EPOCH          = 2025-11-07T04:35:41.570304
MEAN_MOTION    = 14.99492324
ECCENTRICITY   = .00140141
INCLINATION    = 82.4993
RA_OF_ASC_NODE = 201.7501
ARG_OF_PERICENTER = 109.7920
MEAN_ANOMALY   = 250.4816

EPHEMERIS_TYPE = 0
CLASSIFICATION_TYPE = U
NORAD_CAT_ID   = 21422
ELEMENT_SET_NO = 999
REV_AT_EPOCH   = 84483
BSTAR          = .25797146E-3
MEAN_MOTION_DOT = .3197E-4
MEAN_MOTION_DDOT = 0

CCSDS_OMM_VERS = 2.0
CREATION_DATE  = 
ORIGINATOR     = 

OBJECT_NAME    = SL-14 R/B
OBJECT_ID      = 1991-042B
CENTER_NAME    = EARTH
REF_FRAME      = TEME
TIME_SYSTEM    = UTC
MEAN_ELEMENT_THEORY = SGP/SGP4

EPOCH          = 2025-11-07T03:00:52.469856
MEAN_MOTION    = 14.81689254
ECCENTRICITY   = .00155106
INCLINATION    = 82.4926
RA_OF_ASC_NODE = 335.1248
ARG_OF_PERICENTER = 285.3602
MEAN_ANOMALY   = 74.5898

EPHEMERIS_TYPE = 0
CLASSIFICATION_TYPE = U
NORAD_CAT_ID   = 21423
ELEMENT_SET_NO = 999
REV_AT_EPOCH   = 83492
BSTAR          = .64049636E-4
MEAN_MOTION_DOT = .528E-5
MEAN_MOTION_DDOT = 0

CCSDS_OMM_VERS = 2.0
CREATION_DATE  = 
ORIGINATOR     = 

OBJECT_NAME    = ERS-1
OBJECT_ID      = 1991-050A
CENTER_NAME    = EARTH
REF_FRAME      = TEME
TIME_SYSTEM    = UTC
MEAN_ELEMENT_THEORY = SGP/SGP4

EPOCH          = 2025-11-07T00:08:09.483648
MEAN_MOTION    = 14.39321761
ECCENTRICITY   = .00315561
INCLINATION    = 98.7926
RA_OF_ASC_NODE = 321.1629
ARG_OF_PERICENTER = 204.5084
MEAN_ANOMALY   = 155.4604

EPHEMERIS_TYPE = 0
CLASSIFICATION_TYPE = U
NORAD_CAT_ID   = 21574
ELEMENT_SET_NO = 999
REV_AT_EPOCH   = 79808
BSTAR          = .14647942E-3
MEAN_MOTION_DOT = .411E-5
MEAN_MOTION_DDOT = 0

CCSDS_OMM_VERS = 2.0
CREATION_DATE  = 
ORIGINATOR     = 

OBJECT_NAME    = ARIANE 40 R/B
OBJECT_ID      = 1991-050F
CENTER_NAME    = EARTH
REF_FRAME      = TEME
TIME_SYSTEM    = UTC
MEAN_ELEMENT_THEORY = SGP/SGP4

EPOCH          = 2025-11-07T03:22:01.998624
MEAN_MOTION    = 14.42765617
ECCENTRICITY   = .00043513
INCLINATION    = 98.2218
RA_OF_ASC_NODE = 2.8471
ARG_OF_PERICENTER = 88.7993
MEAN_ANOMALY   = 271.3697

EPHEMERIS_TYPE = 0
CLASSIFICATION_TYPE = U
NORAD_CAT_ID   = 21610
ELEMENT_SET_NO = 999
REV_AT_EPOCH   = 80132
BSTAR          = .15593098E-3
MEAN_MOTION_DOT = .478E-5
MEAN_MOTION_DDOT = 0

CCSDS_OMM_VERS = 2.0
CREATION_DATE  = 
ORIGINATOR     = 

OBJECT_NAME    = INTERCOSMOS 25
OBJECT_ID      = 1991-086A
CENTER_NAME    = EARTH
REF_FRAME      = TEME
TIME_SYSTEM    = UTC
MEAN_ELEMENT_THEORY = SGP/SGP4

EPOCH          = 2025-11-07T07:09:33.922656
MEAN_MOTION    = 12.11573562
ECCENTRICITY   = .14886128
INCLINATION    = 82.6091
RA_OF_ASC_NODE = 23.9968
ARG_OF_PERICENTER = 20.7831
MEAN_ANOMALY   = 344.7735

EPHEMERIS_TYPE = 0
CLASSIFICATION_TYPE = U
NORAD_CAT_ID   = 21819
ELEMENT_SET_NO = 999
REV_AT_EPOCH   = 48186
BSTAR          = .34294146E-3
MEAN_MOTION_DOT = .1764E-4
MEAN_MOTION_DDOT = 0

CCSDS_OMM_VERS = 2.0
CREATION_DATE  = 
ORIGINATOR     = 

OBJECT_NAME    = SL-8 R/B
OBJECT_ID      = 1992-008B
CENTER_NAME    = EARTH
REF_FRAME      = TEME
TIME_SYSTEM    = UTC
MEAN_ELEMENT_THEORY = SGP/SGP4

EPOCH          = 2025-11-07T06:25:09.147936
MEAN_MOTION    = 13.75948081
ECCENTRICITY   = .00360217
INCLINATION    = 82.9292
RA_OF_ASC_NODE = 358.8306
ARG_OF_PERICENTER = 115.8458
MEAN_ANOMALY   = 313.8969

EPHEMERIS_TYPE = 0
CLASSIFICATION_TYPE = U
NORAD_CAT_ID   = 21876
ELEMENT_SET_NO = 999
REV_AT_EPOCH   = 69258
BSTAR          = .12977825E-3
MEAN_MOTION_DOT = .142E-5
MEAN_MOTION_DDOT = 0

CCSDS_OMM_VERS = 2.0
CREATION_DATE  = 
ORIGINATOR     = 

OBJECT_NAME    = SL-8 R/B
OBJECT_ID      = 1992-020B
CENTER_NAME    = EARTH
REF_FRAME      = TEME
TIME_SYSTEM    = UTC
MEAN_ELEMENT_THEORY = SGP/SGP4

EPOCH          = 2025-11-07T06:44:26.577024
MEAN_MOTION    = 13.75520436
ECCENTRICITY   = .00276614
INCLINATION    = 82.9303
RA_OF_ASC_NODE = 244.6464
ARG_OF_PERICENTER = 280.4951
MEAN_ANOMALY   = 190.2316

EPHEMERIS_TYPE = 0
CLASSIFICATION_TYPE = U
NORAD_CAT_ID   = 21938
ELEMENT_SET_NO = 999
REV_AT_EPOCH   = 68430
BSTAR          = .54343831E-4
MEAN_MOTION_DOT = .67E-6
MEAN_MOTION_DDOT = 0

CCSDS_OMM_VERS = 2.0
CREATION_DATE  = 
ORIGINATOR     = 

OBJECT_NAME    = USA 81
OBJECT_ID      = 1992-023A
CENTER_NAME    = EARTH
REF_FRAME      = TEME
TIME_SYSTEM    = UTC
MEAN_ELEMENT_THEORY = SGP/SGP4

EPOCH          = 2025-11-07T03:01:18.159168
MEAN_MOTION    = 14.32306793
ECCENTRICITY   = .00027392
INCLINATION    = 85.0116
RA_OF_ASC_NODE = 202.1098
ARG_OF_PERICENTER = 80.9443
MEAN_ANOMALY   = 279.2060

EPHEMERIS_TYPE = 0
CLASSIFICATION_TYPE = U
NORAD_CAT_ID   = 21949
ELEMENT_SET_NO = 999
REV_AT_EPOCH   = 7724
BSTAR          = .8980881E-4
MEAN_MOTION_DOT = .262E-5
MEAN_MOTION_DDOT = 0

CCSDS_OMM_VERS = 2.0
CREATION_DATE  = 
ORIGINATOR     = 

OBJECT_NAME    = COSMOS 2219
OBJECT_ID      = 1992-076A
CENTER_NAME    = EARTH
REF_FRAME      = TEME
TIME_SYSTEM    = UTC
MEAN_ELEMENT_THEORY = SGP/SGP4

EPOCH          = 2025-11-07T06:49:19.978464
MEAN_MOTION    = 14.14062913
ECCENTRICITY   = .00172976
INCLINATION    = 71.0603
RA_OF_ASC_NODE = 273.9454
ARG_OF_PERICENTER = 20.1694
MEAN_ANOMALY   = 340.0109

EPHEMERIS_TYPE = 0
CLASSIFICATION_TYPE = U
NORAD_CAT_ID   = 22219
ELEMENT_SET_NO = 999
REV_AT_EPOCH   = 70107
BSTAR          = .16879765E-3
MEAN_MOTION_DOT = .275E-5
MEAN_MOTION_DDOT = 0

CCSDS_OMM_VERS = 2.0
CREATION_DATE  = 
ORIGINATOR     = 

OBJECT_NAME    = SL-16 R/B
OBJECT_ID      = 1992-076B
CENTER_NAME    = EARTH
REF_FRAME      = TEME
TIME_SYSTEM    = UTC
MEAN_ELEMENT_THEORY = SGP/SGP4

EPOCH          = 2025-11-07T06:32:21.975648
MEAN_MOTION    = 14.16833607
ECCENTRICITY   = .00151214
INCLINATION    = 70.9992
RA_OF_ASC_NODE = 86.2390
ARG_OF_PERICENTER = 280.1332
MEAN_ANOMALY   = 125.1640

EPHEMERIS_TYPE = 0
CLASSIFICATION_TYPE = U
NORAD_CAT_ID   = 22220
ELEMENT_SET_NO = 999
REV_AT_EPOCH   = 70449
BSTAR          = .14367317E-3
MEAN_MOTION_DOT = .24E-5
MEAN_MOTION_DDOT = 0

CCSDS_OMM_VERS = 2.0
CREATION_DATE  = 
ORIGINATOR     = 

OBJECT_NAME    = COSMOS 2221
OBJECT_ID      = 1992-080A
CENTER_NAME    = EARTH
REF_FRAME      = TEME
TIME_SYSTEM    = UTC
MEAN_ELEMENT_THEORY = SGP/SGP4

EPOCH          = 2025-11-07T07:01:50.164608
MEAN_MOTION    = 14.95546953
ECCENTRICITY   = .00133488
INCLINATION    = 82.5073
RA_OF_ASC_NODE = 36.2419
ARG_OF_PERICENTER = 240.7116
MEAN_ANOMALY   = 119.2772

EPHEMERIS_TYPE = 0
CLASSIFICATION_TYPE = U
NORAD_CAT_ID   = 22236
ELEMENT_SET_NO = 999
REV_AT_EPOCH   = 76249
BSTAR          = .29294085E-3
MEAN_MOTION_DOT = .3277E-4
MEAN_MOTION_DDOT = 0

